NUSAT-1 (FRESCO)        
1 41557U 16033B   22238.57698583  .00007038  00000+0  20214-3 0  9992
2 41557  97.3897 336.4699 0011452 122.6299   1.7729 15.36091639348140
BEESAT-4                
1 41619U 16040W   22238.13750820  .00006180  00000+0  19796-3 0  9994
2 41619  97.2114 286.9609 0008185 216.5730 143.4954 15.32695207331392
CAS-2T & KS-1Q          
1 41847U 16066G   22237.19766929  .00000240  00000+0  46102-4 0  9990
2 41847  98.5462 301.7765 0363482   4.4289 355.9971 14.38700165304238
NAYIF-1 (EO-88)         
1 42017U 17008BX  22238.15964406  .00007302  00000+0  20726-3 0  9993
2 42017  97.2643 303.3342 0004440  15.7774 344.3607 15.36490981307775
ZHUHAI-1 02 (CAS-4B)    
1 42759U 17034B   22238.60744961  .00001812  00000+0  11556-3 0  9998
2 42759  43.0192 305.8923 0009299   2.7935 146.0782 15.12312432286977
ZHUHAI-1 01 (CAS-4A)    
1 42761U 17034D   22238.43417438  .00001803  00000+0  11478-3 0  9991
2 42761  43.0181 305.5826 0009716   3.0346 108.3221 15.12395970286956
MAX VALIER SAT          
1 42778U 17036P   22238.41901881  .00003506  00000+0  13107-3 0  9992
2 42778  97.2004 277.1397 0012461  81.0897 279.1753 15.27910907287580
RADFXSAT (FOX-1B)       
1 43017U 17073E   22238.13562442  .00001669  00000+0  12971-3 0  9991
2 43017  97.6655 129.4664 0246158 319.9006  38.4261 14.81862252257435
FOX-1D (AO-92)          
1 43137U 18004AC  22238.14316381  .00004332  00000+0  14945-3 0  9992
2 43137  97.3653 312.7107 0009070 112.2362 247.9842 15.30473366256992
DIWATA-2B               
1 43678U 18084H   22238.45538658  .00000197  00000+0  25028-4 0  9997
2 43678  97.9792  12.5807 0011008  58.7098 301.5205 14.92263624208299
ES'HAIL 2               
1 43700U 18090A   22238.10764017  .00000140  00000+0  00000+0 0  9998
2 43700   0.0222 144.4578 0001780  47.5801 206.8416  1.00268890 13977
FOX-1CLIFF (AO-95)      
1 43770U 18099N   22238.12556699  .00001187  00000+0  10877-3 0  9990
2 43770  97.6183 302.6647 0015000  48.9552 311.3022 14.96702276203432
ITASAT 1                
1 43786U 18099AE  22238.17976196  .00000807  00000+0  75351-4 0  9997
2 43786  97.6183 303.6691 0015395  39.2328 321.0006 14.96811276203486
JY1SAT (JO-97)          
1 43803U 18099AX  22238.44036737  .00000864  00000+0  79170-4 0  9991
2 43803  97.6145 303.7000 0015132  36.7809 323.4448 14.97367190203549
UWE-4                   
1 43880U 18111E   22237.98880763  .00000734  00000+0  66268-4 0  9995
2 43880  97.6607 143.0802 0012888  85.9194 274.3502 14.98450641198116
NEXUS (FO-99)           
1 43937U 19003F   22237.82355242  .00005574  00000+0  18153-3 0  9997
2 43937  97.1264 268.5253 0017827 263.9267  95.9944 15.32083941200590
PSAT2 (NO-104)          
1 44354U 19036R   22237.79035647  .00043347 -56661-5  33721-3 0  9996
2 44354  28.5233  55.1959 0208578  36.4909 324.9711 15.46187819175404
JAISAT-1                
1 44419U 19038F   22237.92442410  .00003696  00000+0  18354-3 0  9992
2 44419  97.6409 208.6718 0016953 248.6006 111.3419 15.18213864173595
DUCHIFAT-3              
1 44854U 19089C   22238.48090514  .00002186  00000+0  17208-3 0  9997
2 44854  36.9660  45.0697 0007505  59.0737 330.7990 15.01446404148469
CAS-6 (TIANQIN 1)       
1 44881U 19093C   22238.53795443  .00000283  00000+0  42466-4 0  9992
2 44881  97.8909 316.7360 0014152 323.0735  36.9497 14.81792659145157
RS-44 & BREEZE-KM R/B   
1 44909U 19096E   22237.85161427  .00000007  00000+0 -20675-4 0  9992
2 44909  82.5240 184.1744 0217725 157.1906 203.9050 12.79714412124386
ORBITAL FACTORY 2 (OF-2)
1 45113U 19071C   22237.29769802  .00014528  00000+0  27613-3 0  9992
2 45113  51.6375  79.8547 0008847  71.2194 288.9753 15.48469510144031
HUSKYSAT-1 (HO-107)     
1 45119U 19071J   22237.28830279  .00011403  00000+0  22877-3 0  9990
2 45119  51.6373  80.5116 0008868  66.7685 293.4236 15.47147580144017
BY70-2                  
1 45857U 20042B   22238.52822261  .00003664  00000+0  48507-3 0  9997
2 45857  97.9536 314.7271 0009094 242.0932 117.9268 14.80503378115829
SALSAT                  
1 46495U 20068K   22237.45938336  .00001600  00000+0  11772-3 0  9998
2 46495  97.7315 178.8014 0017491  47.2993 312.9702 15.04743180104560
BY70-3                  
1 46839U 20079N   22238.47364603  .00012578  00000+0  27218-3 0  9993
2 46839  97.1943 309.7593 0006670  86.5887  40.1524 15.44577105101043
RADFXSAT-2 (AO-109)     
1 47311U 21002C   22238.12956927  .00003201  00000+0  13235-3 0  9991
2 47311  60.6848  99.7734 0028725  26.9301 333.3271 15.26210258 89106
UVSQ-SAT                
1 47438U 21006AB  22238.11208363  .00002745  00000+0  14469-3 0  9990
2 47438  97.4322 295.7020 0012548  40.4845 319.7319 15.16346343 87830
DIY-1 (ARDUIQUBE)       
1 47963U 21022AH  22238.51827798  .00006320  00000+0  33900-3 0  9998
2 47963  97.5247 139.1284 0014009 247.9963 111.9781 15.15231650 77558
XW-3 (CAS-9)            
1 50466U 21131B   22238.49364197 -.00000042  00000+0  10041-5 0  9996
2 50466  98.5779 315.7059 0003384 307.4089  52.6790 14.38516697 34980
TEVEL-3                 
1 50988U 22002E   22238.45858002  .00003887  00000+0  21056-3 0  9997
2 50988  97.4775 304.2895 0009878 171.8902 309.7787 15.15157925 34012
TEVEL-8                 
1 50989U 22002F   22238.46702602  .00003816  00000+0  20710-3 0  9991
2 50989  97.4790 304.3235 0009749 171.2932 315.4040 15.15104227 34016
TEVEL-5                 
1 50998U 22002Q   22238.45709994  .00004027  00000+0  21493-3 0  9995
2 50998  97.4769 304.4225 0011340 168.4800 313.3810 15.15650765 34020
TEVEL-6                 
1 50999U 22002R   22238.45648874  .00004068  00000+0  21704-3 0  9995
2 50999  97.4765 304.4193 0011441 168.5906 312.9096 15.15655653 34023
TEVEL-1                 
1 51013U 22002AF  22238.46333063  .00003830  00000+0  20768-3 0  9990
2 51013  97.4774 304.2732 0009772 171.9222 317.3616 15.15131350 34010
TEVEL-7                 
1 51062U 22002CG  22238.46875536  .00003782  00000+0  20533-3 0  9996
2 51062  97.4781 304.3111 0009786 170.5681 316.1488 15.15095678 34019
TEVEL-4                 
1 51063U 22002CH  22238.46950113  .00003736  00000+0  20296-3 0  9997
2 51063  97.4783 304.3084 0009841 170.9943 315.1064 15.15086067 34019
TEVEL-2                 
1 51069U 22002CP  22238.46124632  .00003882  00000+0  21035-3 0  9996
2 51069  97.4778 304.2783 0009755 171.5399 317.3062 15.15150292 34014
RS3S                    
1 53308U 98067TT  22238.49772818  .00022261  00000+0  36454-3 0  9999
2 53308  51.6430 347.9709 0001389 138.1439 221.9657 15.52401834  5638
RS1S                    
1 53309U 98067TU  22238.49678844  .00022201  00000+0  36272-3 0  9996
2 53309  51.6427 347.9635 0001798 170.5817 189.5207 15.52467988  5583
RS5S                    
1 53310U 98067TV  22238.49727483  .00022036  00000+0  36109-3 0  9997
2 53310  51.6432 347.9682 0001556 172.5286 187.5727 15.52390356  5610
RS6S                    
1 53311U 98067TW  22238.49475336  .00022130  00000+0  35989-3 0  9995
2 53311  51.6425 347.9499 0001267 120.8243 239.2871 15.52598619  5636
RS9S                    
1 53312U 98067TX  22238.49557223  .00022829  00000+0  37203-3 0  9998
2 53312  51.6430 347.9557 0001980 175.2820 184.8189 15.52521002  5577
RS12S                   
1 53313U 98067TY  22238.49455111  .00022258  00000+0  36238-3 0  9995
2 53313  51.6430 347.9495 0001538 185.0459 175.0516 15.52563196  5627
RS4S                    
1 53321U 98067TZ  22238.49820620  .00022532  00000+0  36894-3 0  9998
2 53321  51.6434 347.9755 0001402 153.3743 206.7319 15.52396243  5623
RS29S (SXC3-2110 CYCLO*)
1 53373U 22096D   22238.45634044  .00004424  00000+0  18232-3 0  9999
2 53373  97.4358 139.7959 0003586 104.8966   9.8105 15.24603608  2615
RS32S (SXC3-212 MONITO*)
1 53374U 22096E   22238.45539215  .00004429  00000+0  18195-3 0  9997
2 53374  97.4352 139.7980 0003730 101.9594  14.0258 15.24709845  2617
RS34S (SXC3-218 KUZBAS*)
1 53375U 22096F   22238.52243318  .00003842  00000+0  15822-3 0  9994
2 53375  97.4348 139.8657 0003701  97.1159  27.6299 15.24712008  2627
RS23S (SXC3-21 UTMN)    
1 53376U 22096G   22238.45435024  .00003988  00000+0  16390-3 0  9996
2 53376  97.4354 139.7987 0003762  98.3964  15.1297 15.24753415  2610
RS28S (SXC3-214 MIET-A*)
1 53377U 22096H   22238.45448000  .00003866  00000+0  15886-3 0  9999
2 53377  97.4355 139.7981 0003647  96.5134  19.4985 15.24778410  2610
RS26S (KAI-1)           
1 53378U 22096J   22238.52134455  .00003395  00000+0  13977-3 0  9990
2 53378  97.4349 139.8662 0003696  92.5797  32.5004 15.24806225  2621
RS19S (SXC3-219 ISOI)   
1 53381U 22096M   22238.51708422  .00003743  00000+0  15188-3 0  9997
2 53381  97.4352 139.8735 0005703  48.2108  78.4713 15.25216989  2624
RS21S (CUBESX-HSE-2)    
1 53383U 22096P   22238.38242731  .00003856  00000+0  15610-3 0  9995
2 53383  97.4353 139.7399 0005754  48.5142  63.1008 15.25279061  2605
RS30S (SXC3-217 SIREN)  
1 53384U 22096Q   22238.58022056  .00003688  00000+0  14932-3 0  9993
2 53384  97.4350 139.9369 0005750  49.7140  68.6614 15.25299747  2638
RS20S (GEOSCAN-EDELVEIS)
1 53385U 22096R   22238.38050602  .00004729  00000+0  18970-3 0  9993
2 53385  97.4349 139.7441 0006331  46.4429  65.2903 15.25468338  2634
RS33S (SXC3-215 VIZARD) 
1 53386U 22096S   22238.51170315  .00005778  00000+0  22942-3 0  9992
2 53386  97.4342 139.8788 0007133  45.4493  79.7616 15.25709339  2645
